SL-14 R/B               
1 16792U 86046B   26040.65269977  .00000511  00000+0  56133-4 0  9990
2 16792  82.4813 106.6775 0022137 323.8311  36.1406 14.85563160122241
SL-14 R/B               
1 16882U 86055B   26040.79376856  .00000651  00000+0  72169-4 0  9992
2 16882  82.5234 152.8856 0020276  66.5618  47.2760 14.85613561115222
AJISAI (EGS)            
1 16908U 86061A   26040.93506083 -.00000085  00000+0  86078-4 0  9997
2 16908  50.0075 178.6926 0011234 215.4900 239.7121 12.44515354464546
COSMOS 1812             
1 17295U 87003A   26040.93148320  .00292375  32153-4  72521-3 0  9990
2 17295  82.4770 227.1273 0001470 317.7417  42.3745 15.95846257140024
SL-14 R/B               
1 17567U 87024B   26040.69632953  .00000536  00000+0  58315-4 0  9991
2 17567  82.5289 119.0741 0018094 358.4423   1.6734 14.86105313 83976
COSMOS 1833             
1 17589U 87027A   26040.40288984  .00000048  00000+0  51136-4 0  9990
2 17589  70.9215  25.4666 0024900 252.4435 107.3966 14.13056629  6325
SL-16 R/B               
1 17590U 87027B   26040.95256540 -.00000205  00000+0 -77866-4 0  9990
2 17590  71.0049 334.9426 0005032 191.2059 168.8954 14.17163158 11418
SL-14 R/B               
1 17912U 87038B   26040.87896803  .00000570  00000+0  63421-4 0  9998
2 17912  82.5041 323.0004 0017696 255.7661 104.1589 14.85341892 75101
COSMOS 1844             
1 17973U 87041A   26040.53871850  .00000410  00000+0  23788-3 0  9991
2 17973  70.8980  93.5567 0028868  63.0766 297.3300 14.14541329999607
SL-14 R/B               
1 18153U 87055B   26040.86075387  .00000648  00000+0  71763-4 0  9994
2 18153  82.4998  15.2550 0022249 104.4450 255.9237 14.85594495 65801
COSMOS 1867             
1 18187U 87060A   26040.35687870 -.00000005  00000+0  35593-4 0  9996
2 18187  65.0112  26.0477 0014110 276.5733  83.3745 14.31498440 15888
SL-14 R/B               
1 18749U 88001B   26040.92149536  .00000561  00000+0  62145-4 0  9990
2 18749  82.5108 221.4779 0017388 334.7038  25.3324 14.85494035 37903
