CCSDS_OMM_VERS = 2.0
CREATION_DATE  = 
ORIGINATOR     = 

OBJECT_NAME    = SL-14 R/B
OBJECT_ID      = 1986-046B
CENTER_NAME    = EARTH
REF_FRAME      = TEME
TIME_SYSTEM    = UTC
MEAN_ELEMENT_THEORY = SGP/SGP4

EPOCH          = 2026-02-09T15:39:53.260128
MEAN_MOTION    = 14.85563160
ECCENTRICITY   = .00221378
INCLINATION    = 82.4813
RA_OF_ASC_NODE = 106.6775
ARG_OF_PERICENTER = 323.8311
MEAN_ANOMALY   = 36.1406

EPHEMERIS_TYPE = 0
CLASSIFICATION_TYPE = U
NORAD_CAT_ID   = 16792
ELEMENT_SET_NO = 999
REV_AT_EPOCH   = 12224
BSTAR          = .56132902E-4
MEAN_MOTION_DOT = .511E-5
MEAN_MOTION_DDOT = 0

CCSDS_OMM_VERS = 2.0
CREATION_DATE  = 
ORIGINATOR     = 

OBJECT_NAME    = SL-14 R/B
OBJECT_ID      = 1986-055B
CENTER_NAME    = EARTH
REF_FRAME      = TEME
TIME_SYSTEM    = UTC
MEAN_ELEMENT_THEORY = SGP/SGP4

EPOCH          = 2026-02-09T19:03:01.603584
MEAN_MOTION    = 14.85613561
ECCENTRICITY   = .00202765
INCLINATION    = 82.5234
RA_OF_ASC_NODE = 152.8856
ARG_OF_PERICENTER = 66.5618
MEAN_ANOMALY   = 47.2760

EPHEMERIS_TYPE = 0
CLASSIFICATION_TYPE = U
NORAD_CAT_ID   = 16882
ELEMENT_SET_NO = 999
REV_AT_EPOCH   = 11522
BSTAR          = .72168841E-4
MEAN_MOTION_DOT = .651E-5
MEAN_MOTION_DDOT = 0

CCSDS_OMM_VERS = 2.0
CREATION_DATE  = 
ORIGINATOR     = 

OBJECT_NAME    = AJISAI (EGS)
OBJECT_ID      = 1986-061A
CENTER_NAME    = EARTH
REF_FRAME      = TEME
TIME_SYSTEM    = UTC
MEAN_ELEMENT_THEORY = SGP/SGP4

EPOCH          = 2026-02-09T22:26:29.255712
MEAN_MOTION    = 12.44515354
ECCENTRICITY   = .00112346
INCLINATION    = 50.0075
RA_OF_ASC_NODE = 178.6926
ARG_OF_PERICENTER = 215.4900
MEAN_ANOMALY   = 239.7121

EPHEMERIS_TYPE = 0
CLASSIFICATION_TYPE = U
NORAD_CAT_ID   = 16908
ELEMENT_SET_NO = 999
REV_AT_EPOCH   = 46454
BSTAR          = .86078449E-4
MEAN_MOTION_DOT = -.85E-6
MEAN_MOTION_DDOT = 0

CCSDS_OMM_VERS = 2.0
CREATION_DATE  = 
ORIGINATOR     = 

OBJECT_NAME    = COSMOS 1812
OBJECT_ID      = 1987-003A
CENTER_NAME    = EARTH
REF_FRAME      = TEME
TIME_SYSTEM    = UTC
MEAN_ELEMENT_THEORY = SGP/SGP4

EPOCH          = 2026-02-09T22:21:20.148480
MEAN_MOTION    = 15.95846257
ECCENTRICITY   = .00014707
INCLINATION    = 82.4770
RA_OF_ASC_NODE = 227.1273
ARG_OF_PERICENTER = 317.7417
MEAN_ANOMALY   = 42.3745

EPHEMERIS_TYPE = 0
CLASSIFICATION_TYPE = U
NORAD_CAT_ID   = 17295
ELEMENT_SET_NO = 999
REV_AT_EPOCH   = 14002
BSTAR          = .72521239E-3
MEAN_MOTION_DOT = .292375E-2
MEAN_MOTION_DDOT = .32152827E-4

CCSDS_OMM_VERS = 2.0
CREATION_DATE  = 
ORIGINATOR     = 

OBJECT_NAME    = SL-14 R/B
OBJECT_ID      = 1987-024B
CENTER_NAME    = EARTH
REF_FRAME      = TEME
TIME_SYSTEM    = UTC
MEAN_ELEMENT_THEORY = SGP/SGP4

EPOCH          = 2026-02-09T16:42:42.871392
MEAN_MOTION    = 14.86105313
ECCENTRICITY   = .00180949
INCLINATION    = 82.5289
RA_OF_ASC_NODE = 119.0741
ARG_OF_PERICENTER = 358.4423
MEAN_ANOMALY   = 1.6734

EPHEMERIS_TYPE = 0
CLASSIFICATION_TYPE = U
NORAD_CAT_ID   = 17567
ELEMENT_SET_NO = 999
REV_AT_EPOCH   = 8397
BSTAR          = .58314596E-4
MEAN_MOTION_DOT = .536E-5
MEAN_MOTION_DDOT = 0

CCSDS_OMM_VERS = 2.0
CREATION_DATE  = 
ORIGINATOR     = 

OBJECT_NAME    = COSMOS 1833
OBJECT_ID      = 1987-027A
CENTER_NAME    = EARTH
REF_FRAME      = TEME
TIME_SYSTEM    = UTC
MEAN_ELEMENT_THEORY = SGP/SGP4

EPOCH          = 2026-02-09T09:40:09.682176
MEAN_MOTION    = 14.13056629
ECCENTRICITY   = .00249005
INCLINATION    = 70.9215
RA_OF_ASC_NODE = 25.4666
ARG_OF_PERICENTER = 252.4435
MEAN_ANOMALY   = 107.3966

EPHEMERIS_TYPE = 0
CLASSIFICATION_TYPE = U
NORAD_CAT_ID   = 17589
ELEMENT_SET_NO = 999
REV_AT_EPOCH   = 632
BSTAR          = .51135995E-4
MEAN_MOTION_DOT = .48E-6
MEAN_MOTION_DDOT = 0

CCSDS_OMM_VERS = 2.0
CREATION_DATE  = 
ORIGINATOR     = 

OBJECT_NAME    = SL-16 R/B
OBJECT_ID      = 1987-027B
CENTER_NAME    = EARTH
REF_FRAME      = TEME
TIME_SYSTEM    = UTC
MEAN_ELEMENT_THEORY = SGP/SGP4

EPOCH          = 2026-02-09T22:51:41.650560
MEAN_MOTION    = 14.17163158
ECCENTRICITY   = .00050329
INCLINATION    = 71.0049
RA_OF_ASC_NODE = 334.9426
ARG_OF_PERICENTER = 191.2059
MEAN_ANOMALY   = 168.8954

EPHEMERIS_TYPE = 0
CLASSIFICATION_TYPE = U
NORAD_CAT_ID   = 17590
ELEMENT_SET_NO = 999
REV_AT_EPOCH   = 1141
BSTAR          = -.77865877E-4
MEAN_MOTION_DOT = -.205E-5
MEAN_MOTION_DDOT = 0

CCSDS_OMM_VERS = 2.0
CREATION_DATE  = 
ORIGINATOR     = 

OBJECT_NAME    = SL-14 R/B
OBJECT_ID      = 1987-038B
CENTER_NAME    = EARTH
REF_FRAME      = TEME
TIME_SYSTEM    = UTC
MEAN_ELEMENT_THEORY = SGP/SGP4

EPOCH          = 2026-02-09T21:05:42.837792
MEAN_MOTION    = 14.85341892
ECCENTRICITY   = .00176967
INCLINATION    = 82.5041
RA_OF_ASC_NODE = 323.0004
ARG_OF_PERICENTER = 255.7661
MEAN_ANOMALY   = 104.1589

EPHEMERIS_TYPE = 0
CLASSIFICATION_TYPE = U
NORAD_CAT_ID   = 17912
ELEMENT_SET_NO = 999
REV_AT_EPOCH   = 7510
BSTAR          = .63421078E-4
MEAN_MOTION_DOT = .57E-5
MEAN_MOTION_DDOT = 0

CCSDS_OMM_VERS = 2.0
CREATION_DATE  = 
ORIGINATOR     = 

OBJECT_NAME    = COSMOS 1844
OBJECT_ID      = 1987-041A
CENTER_NAME    = EARTH
REF_FRAME      = TEME
TIME_SYSTEM    = UTC
MEAN_ELEMENT_THEORY = SGP/SGP4

EPOCH          = 2026-02-09T12:55:45.278400
MEAN_MOTION    = 14.14541329
ECCENTRICITY   = .0028868
INCLINATION    = 70.8980
RA_OF_ASC_NODE = 93.5567
ARG_OF_PERICENTER = 63.0766
MEAN_ANOMALY   = 297.3300

EPHEMERIS_TYPE = 0
CLASSIFICATION_TYPE = U
NORAD_CAT_ID   = 17973
ELEMENT_SET_NO = 999
REV_AT_EPOCH   = 99960
BSTAR          = .23788E-3
MEAN_MOTION_DOT = .41E-5
MEAN_MOTION_DDOT = 0

CCSDS_OMM_VERS = 2.0
CREATION_DATE  = 
ORIGINATOR     = 

OBJECT_NAME    = SL-14 R/B
OBJECT_ID      = 1987-055B
CENTER_NAME    = EARTH
REF_FRAME      = TEME
TIME_SYSTEM    = UTC
MEAN_ELEMENT_THEORY = SGP/SGP4

EPOCH          = 2026-02-09T20:39:29.134368
MEAN_MOTION    = 14.85594495
ECCENTRICITY   = .00222494
INCLINATION    = 82.4998
RA_OF_ASC_NODE = 15.2550
ARG_OF_PERICENTER = 104.4450
MEAN_ANOMALY   = 255.9237

EPHEMERIS_TYPE = 0
CLASSIFICATION_TYPE = U
NORAD_CAT_ID   = 18153
ELEMENT_SET_NO = 999
REV_AT_EPOCH   = 6580
BSTAR          = .71763267E-4
MEAN_MOTION_DOT = .648E-5
MEAN_MOTION_DDOT = 0

CCSDS_OMM_VERS = 2.0
CREATION_DATE  = 
ORIGINATOR     = 

OBJECT_NAME    = COSMOS 1867
OBJECT_ID      = 1987-060A
CENTER_NAME    = EARTH
REF_FRAME      = TEME
TIME_SYSTEM    = UTC
MEAN_ELEMENT_THEORY = SGP/SGP4

EPOCH          = 2026-02-09T08:33:54.319680
MEAN_MOTION    = 14.31498440
ECCENTRICITY   = .00141107
INCLINATION    = 65.0112
RA_OF_ASC_NODE = 26.0477
ARG_OF_PERICENTER = 276.5733
MEAN_ANOMALY   = 83.3745

EPHEMERIS_TYPE = 0
CLASSIFICATION_TYPE = U
NORAD_CAT_ID   = 18187
ELEMENT_SET_NO = 999
REV_AT_EPOCH   = 1588
BSTAR          = .35593143E-4
MEAN_MOTION_DOT = -.5E-7
MEAN_MOTION_DDOT = 0

CCSDS_OMM_VERS = 2.0
CREATION_DATE  = 
ORIGINATOR     = 

OBJECT_NAME    = SL-14 R/B
OBJECT_ID      = 1988-001B
CENTER_NAME    = EARTH
REF_FRAME      = TEME
TIME_SYSTEM    = UTC
MEAN_ELEMENT_THEORY = SGP/SGP4

EPOCH          = 2026-02-09T22:06:57.199104
MEAN_MOTION    = 14.85494035
ECCENTRICITY   = .0017388
INCLINATION    = 82.5108
RA_OF_ASC_NODE = 221.4779
ARG_OF_PERICENTER = 334.7038
MEAN_ANOMALY   = 25.3324

EPHEMERIS_TYPE = 0
CLASSIFICATION_TYPE = U
NORAD_CAT_ID   = 18749
ELEMENT_SET_NO = 999
REV_AT_EPOCH   = 3790
BSTAR          = .62144764E-4
MEAN_MOTION_DOT = .561E-5
MEAN_MOTION_DDOT = 0

